OBJECT_NAME,OBJECT_ID,EPOCH,MEAN_MOTION,ECCENTRICITY,INCLINATION,RA_OF_ASC_NODE,ARG_OF_PERICENTER,MEAN_ANOMALY,EPHEMERIS_TYPE,CLASSIFICATION_TYPE,NORAD_CAT_ID,ELEMENT_SET_NO,REV_AT_EPOCH,BSTAR,MEAN_MOTION_DOT,MEAN_MOTION_DDOT
STARLINK-32507,2024-222U,2026-07-06T00:54:57.181248,15.27579621,.00007598,42.9974,187.3987,255.1275,104.9492,0,U,62132,999,9070,.23640744E-3,.6249E-4,0
STARLINK-32245,2024-222V,2026-07-05T11:39:19.658016,15.27626304,.00016728,43.0001,190.9909,272.0526,88.0134,0,U,62133,999,9092,.69475418E-3,.18932E-3,0
STARLINK-32546,2024-222W,2026-07-06T00:26:15.627552,15.27557030,.00006696,42.9975,184.6496,211.0092,149.0720,0,U,62134,999,9077,.87696479E-3,.23932E-3,0
STARLINK-32545,2024-222X,2026-07-06T00:49:37.224768,15.27586283,.00033049,42.9997,188.2277,294.8766,65.1742,0,U,62135,999,9089,.94374732E-3,.25806E-3,0
STARLINK-32554,2024-222Y,2026-07-06T01:31:57.916128,15.27572419,.0001457,43.0022,187.5910,253.6291,106.4401,0,U,62136,999,9090,.63697501E-3,.17303E-3,0
STARLINK-32570,2024-222Z,2026-07-06T00:07:05.735136,15.27555582,.00034311,43.0003,188.0037,274.7305,85.3155,0,U,62137,999,9099,.84818644E-3,.23136E-3,0
STARLINK-32529,2024-224A,2026-07-06T03:28:09.512256,15.27546719,.00015409,43.0005,209.3750,275.2163,84.8513,0,U,62139,999,9053,.64125995E-3,.17408E-3,0
STARLINK-32464,2024-224B,2026-07-06T02:05:06.044928,15.27578763,.00013383,43.0004,209.7784,249.4707,110.6001,0,U,62140,999,9052,.88188038E-3,.24084E-3,0
STARLINK-32482,2024-224C,2026-07-06T01:09:34.838496,15.27566425,.0000672,43.0012,209.4896,267.2733,92.8042,0,U,62141,999,9042,.17958234E-3,.4681E-4,0
STARLINK-32454,2024-224D,2026-07-05T18:46:12.700416,15.27572528,.00009393,42.9996,218.7094,305.4517,54.6247,0,U,62142,999,9045,.5889153E-3,.15975E-3,0
STARLINK-32485,2024-224E,2026-07-06T02:33:47.971872,15.27560700,.00015755,42.9985,212.5244,264.0672,96.0000,0,U,62143,999,9012,.74241508E-3,.20212E-3,0
STARLINK-32388,2024-224F,2026-07-05T18:40:39.147168,15.27597805,.00020791,42.9980,218.6811,272.0865,87.9748,0,U,62144,999,9045,.31313776E-3,.8369E-4,0
STARLINK-32374,2024-224G,2026-07-06T03:15:11.926080,15.27554233,.00015865,43.0017,209.2822,271.2373,88.8297,0,U,62145,999,9059,.674012E-3,.18317E-3,0
STARLINK-32384,2024-224H,2026-07-06T03:17:02.797152,15.27564646,.00015534,42.9998,209.2947,260.3753,99.6923,0,U,62146,999,9059,.73953094E-3,.20134E-3,0
STARLINK-32295,2024-224J,2026-07-05T10:16:06.907008,15.27603926,.0001742,42.9991,213.4303,281.9323,78.1333,0,U,62147,999,9037,.99439E-3,.27223E-3,0
STARLINK-32479,2024-224K,2026-07-06T03:02:14.114400,15.27569266,.00017871,43.0023,209.2197,272.1844,87.8803,0,U,62148,999,9053,.68134081E-3,.18528E-3,0
STARLINK-32468,2024-224L,2026-07-06T03:00:21.444480,15.27633528,.00019908,43.0013,209.2077,286.5603,73.5030,0,U,62149,999,9043,.50440666E-3,.13667E-3,0
STARLINK-32629,2024-224M,2026-07-05T12:14:07.903680,15.27559161,.00029298,43.0036,212.3218,258.5531,101.4991,0,U,62150,999,9050,.80560796E-3,.2196E-3,0
STARLINK-32644,2024-224N,2026-07-06T03:29:59.881344,15.27551172,.00011218,42.9985,209.3530,247.1132,112.9601,0,U,62151,999,9059,.58591763E-3,.15882E-3,0
STARLINK-32623,2024-224P,2026-07-06T02:48:35.425152,15.27577084,.00006038,43.0018,212.6032,28.4216,331.6668,0,U,62152,999,9049,.5772666E-3,.15655E-3,0
STARLINK-32639,2024-224Q,2026-07-06T03:26:17.981952,15.27577626,.00024166,42.9980,209.3361,290.0263,70.0329,0,U,62153,999,9043,.88753053E-3,.2424E-3,0
STARLINK-32625,2024-224R,2026-07-06T02:03:14.718528,15.27568003,.00012907,43.0001,209.7643,244.0316,116.0402,0,U,62154,999,9047,.60758421E-3,.16489E-3,0
STARLINK-32635,2024-224S,2026-07-06T02:42:33.244128,15.27543741,.00012941,42.9990,216.8903,260.8041,99.2664,0,U,62155,999,9034,.45775987E-3,.12342E-3,0
STARLINK-32532,2024-224T,2026-07-05T18:58:29.668224,15.27582302,.00014617,43.0013,210.9948,267.5322,92.5362,0,U,62156,999,9038,.1237371E-3,.3145E-4,0
STARLINK-32503,2024-224U,2026-07-05T18:35:06.793152,15.27583274,.00007142,42.9985,218.6501,307.1356,52.9430,0,U,62157,999,9002,.47353624E-3,.12793E-3,0
STARLINK-32508,2024-224V,2026-07-05T12:58:30.509760,15.27653121,.00012698,43.0003,212.5567,294.6112,65.4607,0,U,62158,999,9050,.79630477E-3,.21764E-3,0
STARLINK-32524,2024-224W,2026-07-06T03:05:14.991072,15.27542018,.00015293,43.0027,212.6940,264.2371,95.8307,0,U,62159,999,9039,.60456955E-3,.16392E-3,0
STARLINK-32484,2024-224X,2026-07-06T02:01:23.399904,15.27562109,.00009189,42.9974,209.7500,248.8265,111.2489,0,U,62160,999,9058,.55473188E-3,.15026E-3,0
STARLINK-32497,2024-224Y,2026-07-06T02:54:08.675136,15.27567085,.00001542,43.0010,212.6313,263.8552,96.2282,0,U,62161,999,9054,.49248557E-3,.13309E-3,0
