[ {"name": "STARLINK-32507", "line1": "1 62132U 24222U   26187.03816182  .00006249  00000+0  23641-3 0  9998", "line2": "2 62132  42.9974 187.3987 0000759 255.1275 104.9492 15.27579621 90702"}, {"name": "STARLINK-32245", "line1": "1 62133U 24222V   26186.48564419  .00018932  00000+0  69475-3 0  9997", "line2": "2 62133  43.0001 190.9909 0001672 272.0526  88.0134 15.27626304 90922"}, {"name": "STARLINK-32546", "line1": "1 62134U 24222W   26187.01823643  .00023932  00000+0  87696-3 0  9996", "line2": "2 62134  42.9975 184.6496 0000669 211.0092 149.0720 15.27557030 90779"}, {"name": "STARLINK-32545", "line1": "1 62135U 24222X   26187.03445862  .00025806  00000+0  94375-3 0  9996", "line2": "2 62135  42.9997 188.2277 0003304 294.8766  65.1742 15.27586283 90894"}, {"name": "STARLINK-32554", "line1": "1 62136U 24222Y   26187.06386477  .00017303  00000+0  63698-3 0  9993", "line2": "2 62136  43.0022 187.5910 0001457 253.6291 106.4401 15.27572419 90904"}, {"name": "STARLINK-32570", "line1": "1 62137U 24222Z   26187.00492749  .00023136  00000+0  84819-3 0  9997", "line2": "2 62137  43.0003 188.0037 0003431 274.7305  85.3155 15.27555582 90996"}, {"name": "STARLINK-32529", "line1": "1 62139U 24224A   26187.14455454  .00017408  00000+0  64126-3 0  9992", "line2": "2 62139  43.0005 209.3750 0001540 275.2163  84.8513 15.27546719 90530"}, {"name": "STARLINK-32464", "line1": "1 62140U 24224B   26187.08687552  .00024084  00000+0  88188-3 0  9995", "line2": "2 62140  43.0004 209.7784 0001338 249.4707 110.6001 15.27578763 90527"}, {"name": "STARLINK-32482", "line1": "1 62141U 24224C   26187.04831989  .00004681  00000+0  17958-3 0  9995", "line2": "2 62141  43.0012 209.4896 0000672 267.2733  92.8042 15.27566425 90422"}, {"name": "STARLINK-32454", "line1": "1 62142U 24224D   26186.78209144  .00015975  00000+0  58892-3 0  9998", "line2": "2 62142  42.9996 218.7094 0000939 305.4517  54.6247 15.27572528 90453"}, {"name": "STARLINK-32485", "line1": "1 62143U 24224E   26187.10680523  .00020212  00000+0  74242-3 0  9997", "line2": "2 62143  42.9985 212.5244 0001575 264.0672  96.0000 15.27560700 90120"}, {"name": "STARLINK-32388", "line1": "1 62144U 24224F   26186.77823087  .00008369  00000+0  31314-3 0  9996", "line2": "2 62144  42.9980 218.6811 0002079 272.0865  87.9748 15.27597805 90456"}, {"name": "STARLINK-32374", "line1": "1 62145U 24224G   26187.13555470  .00018317  00000+0  67401-3 0  9996", "line2": "2 62145  43.0017 209.2822 0001586 271.2373  88.8297 15.27554233 90597"}, {"name": "STARLINK-32384", "line1": "1 62146U 24224H   26187.13683793  .00020134  00000+0  73953-3 0  9996", "line2": "2 62146  42.9998 209.2947 0001553 260.3753  99.6923 15.27564646 90592"}, {"name": "STARLINK-32295", "line1": "1 62147U 24224J   26186.42785772  .00027223  00000+0  99439-3 0  9991", "line2": "2 62147  42.9991 213.4303 0001742 281.9323  78.1333 15.27603926 90379"}, {"name": "STARLINK-32479", "line1": "1 62148U 24224K   26187.12655225  .00018528  00000+0  68134-3 0  9995", "line2": "2 62148  43.0023 209.2197 0001787 272.1844  87.8803 15.27569266 90536"}, {"name": "STARLINK-32468", "line1": "1 62149U 24224L   26187.12524820  .00013667  00000+0  50441-3 0  9993", "line2": "2 62149  43.0013 209.2077 0001990 286.5603  73.5030 15.27633528 90437"}, {"name": "STARLINK-32629", "line1": "1 62150U 24224M   26186.50981370  .00021960  00000+0  80561-3 0  9994", "line2": "2 62150  43.0036 212.3218 0002929 258.5531 101.4991 15.27559161 90503"}, {"name": "STARLINK-32644", "line1": "1 62151U 24224N   26187.14583196  .00015882  00000+0  58592-3 0  9995", "line2": "2 62151  42.9985 209.3530 0001121 247.1132 112.9601 15.27551172 90590"}, {"name": "STARLINK-32623", "line1": "1 62152U 24224P   26187.11707668  .00015655  00000+0  57727-3 0  9992", "line2": "2 62152  43.0018 212.6032 0000603  28.4216 331.6668 15.27577084 90493"}, {"name": "STARLINK-32639", "line1": "1 62153U 24224Q   26187.14326368  .00024240  00000+0  88753-3 0  9993", "line2": "2 62153  42.9980 209.3361 0002416 290.0263  70.0329 15.27577626 90435"}, {"name": "STARLINK-32625", "line1": "1 62154U 24224R   26187.08558702  .00016489  00000+0  60758-3 0  9997", "line2": "2 62154  43.0001 209.7643 0001290 244.0316 116.0402 15.27568003 90472"}, {"name": "STARLINK-32635", "line1": "1 62155U 24224S   26187.11288477  .00012342  00000+0  45776-3 0  9998", "line2": "2 62155  42.9990 216.8903 0001294 260.8041  99.2664 15.27543741 90341"}, {"name": "STARLINK-32532", "line1": "1 62156U 24224T   26186.79062116  .00003145  00000+0  12374-3 0  9991", "line2": "2 62156  43.0013 210.9948 0001461 267.5322  92.5362 15.27582302 90387"}, {"name": "STARLINK-32503", "line1": "1 62157U 24224U   26186.77438418  .00012793  00000+0  47354-3 0  9997", "line2": "2 62157  42.9985 218.6501 0000714 307.1356  52.9430 15.27583274 90028"}, {"name": "STARLINK-32508", "line1": "1 62158U 24224V   26186.54063090  .00021764  00000+0  79630-3 0  9993", "line2": "2 62158  43.0003 212.5567 0001269 294.6112  65.4607 15.27653121 90500"}, {"name": "STARLINK-32524", "line1": "1 62159U 24224W   26187.12864573  .00016392  00000+0  60457-3 0  9992", "line2": "2 62159  43.0027 212.6940 0001529 264.2371  95.8307 15.27542018 90395"}, {"name": "STARLINK-32484", "line1": "1 62160U 24224X   26187.08429861  .00015026  00000+0  55473-3 0  9991", "line2": "2 62160  42.9974 209.7500 0000918 248.8265 111.2489 15.27562109 90584"}, {"name": "STARLINK-32497", "line1": "1 62161U 24224Y   26187.12093374  .00013309  00000+0  49249-3 0  9999", "line2": "2 62161  43.0010 212.6313 0000154 263.8552  96.2282 15.27567085 90548"}]